id,spkid,full_name,pdes,name,prefix,neo,pha,H,G,M1,M2,K1,K2,PC,diameter,extent,albedo,rot_per,GM,BV,UB,IR,spec_B,spec_T,H_sigma,diameter_sigma,orbit_id,epoch,epoch_mjd,epoch_cal,equinox,e,a,q,i,om,w,ma,ad,n,tp,tp_cal,per,per_y,moid,moid_ld,moid_jup,t_jup,sigma_e,sigma_a,sigma_q,sigma_i,sigma_om,sigma_w,sigma_ma,sigma_ad,sigma_n,sigma_tp,sigma_per,class,producer,data_arc,first_obs,last_obs,n_obs_used,n_del_obs_used,n_dop_obs_used,condition_code,rms,two_body,A1,A2,A3,DT
a0001685,2001685,  1685 Toro (1948 OA),1685,Toro,,Y,N,14.3,,,,,,,3.4,,0.31,10.1995,,0.880,0.470,,S,S,,,JPL 491,2459000.5,59000,20200531.0000000,J2000,.4358371101234201,1.367586471676899,.7715415360173549,9.383132281270342,274.2452382733312,127.2065882952966,290.2506511775094,1.963631407336444,.6162712104327692,2459113.679632021931,20200921.1796320,584.1583930996781,1.59933851635778,.0506645,19.717103465,3.47931,4.715,5.7556E-9,8.1654E-10,7.8405E-9,3.3104E-6,1.6385E-5,1.6564E-5,2.0642E-6,1.1724E-9,5.5193E-10,3.3759E-6,5.2317E-7,APO,Otto Matic,26348,1948-07-17,2020-09-05,3002,7,2,0,.32086,,,-3.097775713788239E-15,,
a0001865,2001865,  1865 Cerberus (1971 UA),1865,Cerberus,,Y,N,16.7,,,,,,,1.2,,0.22,6.8039,,0.790,0.442,,S,S,,,JPL 331,2459000.5,59000,20200531.0000000,J2000,.4668531143213238,1.079993933536221,.5757954022166996,16.09595477620721,212.9201787526029,325.24549886,3.320367440209756,1.584192464855742,.8781568631971943,2458996.718935842372,20200527.2189358,409.9495375909398,1.1223806641778,.156542,60.92145014,3.40788,5.592,3.8493E-8,1.17E-9,4.1476E-8,3.9514E-6,9.8202E-6,1.074E-5,8.9505E-6,1.7162E-9,1.427E-9,1.019E-5,6.6615E-7,APO,Otto Matic,17848,1971-10-26,2020-09-06,1927,,,0,.42603,,,,,
a0002101,2002101,  2101 Adonis (1936 CA),2101,Adonis,,Y,Y,18.8,,,,,,,0.6,,,,,,,,,,,,JPL 41,2459000.5,59000,20200531.0000000,J2000,.7639969451829166,1.874841297944183,.4424682736120527,1.322472468079853,349.4862961993228,43.60816556300155,336.1573364011426,3.307214322276312,.3839346482579876,2459062.600838533427,20200801.1008385,937.6595773093536,2.56717201179837,.0115889,4.510052213,2.14319,3.550,6.5828E-8,1.3137E-9,1.2323E-7,9.094E-6,.00042964,.00042995,9.4212E-6,2.3174E-9,4.0354E-10,2.4543E-5,9.8554E-7,APO,Otto Matic,30799,1936-02-12,2020-06-09,142,0,5,0,.74571,,,,,
a0002102,2002102,  2102 Tantalus (1975 YA),2102,Tantalus,,Y,Y,16.0,,,,,,,1.649,,0.245,2.384,,,,,Q,,,0.045,JPL 213,2459000.5,59000,20200531.0000000,J2000,.2991482365563772,1.290150777447911,.9042044474825296,64.00699453670016,94.36249204230198,61.54106202249491,81.98646989409679,1.676097107413293,.6725791054382059,2458878.601372416736,20200130.1013724,535.2530239033355,1.46544291280858,.0434654,16.915429718,3.76209,4.450,2.721E-8,1.0062E-9,3.5326E-8,1.1324E-5,1.6106E-6,8.7106E-6,7.0813E-6,1.3072E-9,7.868E-10,1.0501E-5,6.2615E-7,APO,Otto Matic,16264,1975-12-30,2020-07-10,1346,1,0,0,.30462,,,,,
a0003360,2003360,  3360 Syrinx (1981 VA),3360,Syrinx,,Y,N,15.9,,,,,,,1.8,,0.17,,,,,,,,,,JPL 117,2459000.5,59000,20200531.0000000,J2000,.7461017377195733,2.465440309291031,.6259710102851105,21.16213439259364,242.5535895260869,63.46119658856012,2.589849624052044,4.304909608296952,.2546023075178019,2458990.327862719308,20200520.8278627,1413.969902746575,3.87123861121581,.108775,42.33196675,1.78367,2.965,3.433E-8,9.649E-9,8.5489E-8,9.5251E-6,1.8375E-5,1.796E-5,5.2318E-6,1.6848E-8,1.4947E-9,2.051E-5,8.3008E-6,APO,Otto Matic,14161,1981-11-04,2020-08-12,493,,,0,.44039,,,,,
dK13TB7L,1003292,     P/2013 TL117 (Lemmon),2013 TL117,Lemmon,P,Y,,,,16.9,20.6,15.,5.,0.03,,,,,,,,,,,,,JPL 45,2456674.5,56674,20140117.0000000,J2000,.6899137951227233,3.604391481779416,1.117672075476963,9.365636389487001,3.362021948083192,112.199132042696,355.3594715333099,6.09111088808187,.1440310550297595,2456706.718943794665,20140218.2189438,2499.460966425729,6.84315117433465,.20162,78.4644554,,2.633,4.8047E-6,5.812E-5,7.8366E-7,2.2741E-5,9.6503E-5,8.0463E-5,.00011338,9.8217E-5,3.4837E-6,3.9775E-5,.060455,JFc,Otto Matic,232,2013-10-04,2014-05-24,515,,,3,.53547,,,,,
dK20M030,1003699,     C/2020 M3 (ATLAS),2020 M3,ATLAS,C,Y,,,,13.8,,12.75,,,,,,,,,,,,,,,JPL 10,2459083.5,59083,20200822.0000000,J2000,.9527060465347882,26.81637896596824,1.268252578921987,23.47301744752847,71.25054995354465,328.4423493431134,359.5413595177743,52.3645053530145,.007097475014010277,2459148.120232029046,20201025.6202320,50722.26380358748,138.869989879774,.327007,127.26131419,.886156,1.460,7.146E-5,.041081,2.6803E-5,.00050304,.0022012,.0031158,.0010618,.080219,1.6309E-5,.0011409,116.55,HTC,Otto Matic,88,2020-06-27,2020-09-23,271,,,5,.45915,,,,,